NORAD_CAT_ID,OBJECT_NAME,OBJECT_TYPE,EPOCH,MEAN_MOTION,ECCENTRICITY,INCLINATION,RA_OF_ASC_NODE,ARG_OF_PERICENTER,MEAN_ANOMALY,BSTAR,MEAN_MOTION_DOT,MEAN_MOTION_DDOT,TLE_LINE0,TLE_LINE1,TLE_LINE2,SEMIMAJOR_AXIS,PERIOD,APOGEE,PERIGEE,DECAYED
55962.0,STARLINK-5906,PAYLOAD,2023-05-20 21:12:25,15.69931257,0.0003671,69.9995,0.7919,272.2892,87.7883,2.4556e-05,2.742e-05,0.0,0 STARLINK-5906,1 55962U 23037BA  23140.88363254  .00002742  00000-0  24556-4 0  9992,2 55962  69.9995   0.7919 0003671 272.2892  87.7883 15.69931257 10258,6737.231,91.724,361.569,356.622,0.0
55962.0,STARLINK-5906,PAYLOAD,2023-05-21 00:15:58,15.69895826,0.0003724,69.9972,0.4346,267.1187,92.9582,-1.4662e-05,-1.974e-05,0.0,0 STARLINK-5906,1 55962U 23037BA  23141.01109107 -.00001974  00000-0 -14662-4 0  9998,2 55962  69.9972   0.4346 0003724 267.1187  92.9582 15.69895826 10618,6737.332,91.726,361.706,356.688,0.0
55962.0,STARLINK-5906,PAYLOAD,2023-05-21 14:01:43,15.69908859,0.000351,69.9984,358.8199,267.3319,92.7475,-2.7936e-05,-3.568e-05,0.0,0 STARLINK-5906,1 55962U 23037BA  23141.58453231 -.00003568  00000-0 -27936-4 0  9999,2 55962  69.9984 358.8199 0003510 267.3319  92.7475 15.69908859 10361,6737.295,91.725,361.525,356.795,0.0
55962.0,STARLINK-5906,PAYLOAD,2023-05-21 15:33:28,15.69913141,0.0003444,69.9985,358.6443,267.6097,92.4704,-2.0243e-05,-2.645e-05,0.0,0 STARLINK-5906,1 55962U 23037BA  23141.64824681 -.00002645  00000-0 -20243-4 0  9996,2 55962  69.9985 358.6443 0003444 267.6097  92.4704 15.69913141 10715,6737.283,91.725,361.468,356.827,0.0
55962.0,STARLINK-5906,PAYLOAD,2023-05-21 18:36:58,15.69928217,0.0003732,69.9994,358.2839,274.7622,85.3147,1.2712e-05,1.316e-05,0.0,0 STARLINK-5906,1 55962U 23037BA  23141.77567455  .00001316  00000-0  12712-4 0  9997,2 55962  69.9994 358.2839 0003732 274.7622  85.3147 15.69928217 10399,6737.239,91.724,361.619,356.59,0.0
55962.0,STARLINK-5906,PAYLOAD,2023-05-22 00:43:58,15.69939301,0.0003853,69.9994,357.5657,267.3168,92.7587,3.424e-05,3.909e-05,0.0,0 STARLINK-5906,1 55962U 23037BA  23142.03053433  .00003909  00000-0  34240-4 0  9993,2 55962  69.9994 357.5657 0003853 267.3168  92.7587 15.69939301 10774,6737.208,91.723,361.669,356.477,0.0
55962.0,STARLINK-5906,PAYLOAD,2023-05-22 16:01:29,15.69922942,0.0003764,69.9992,355.7754,271.785,88.2915,1.4418e-05,1.521e-05,0.0,0 STARLINK-5906,1 55962U 23037BA  23142.66770792  .00001521  00000-0  14418-4 0  9999,2 55962  69.9992 355.7754 0003764 271.7850  88.2915 15.69922942 10877,6737.254,91.724,361.655,356.584,0.0
55962.0,STARLINK-5906,PAYLOAD,2023-05-22 20:36:45,15.69918533,0.0003704,69.9979,355.2372,270.058,90.0191,8.7853e-06,8.43e-06,0.0,0 STARLINK-5906,1 55962U 23037BA  23142.85886109  .00000843  00000-0  87853-5 0  9990,2 55962  69.9979 355.2372 0003704 270.0580  90.0191 15.69918533 10563,6737.267,91.725,361.628,356.637,0.0
55962.0,STARLINK-5906,PAYLOAD,2023-05-23 04:15:31,15.69918786,0.0003763,69.9978,354.3417,271.3108,88.7657,2.947e-06,1.41e-06,0.0,0 STARLINK-5906,1 55962U 23037BA  23143.17744602  .00000141  00000-0  29470-5 0  9999,2 55962  69.9978 354.3417 0003763 271.3108  88.7657 15.69918786 10951,6737.266,91.724,361.667,356.596,0.0
55962.0,STARLINK-5906,PAYLOAD,2023-05-23 16:29:31,15.69927643,0.0003808,69.9974,352.909,271.9321,88.1438,7.8158e-06,7.27e-06,0.0,0 STARLINK-5906,1 55962U 23037BA  23143.68717544  .00000727  00000-0  78158-5 0  9997,2 55962  69.9974 352.9090 0003808 271.9321  88.1438 15.69927643 11034,6737.241,91.724,361.672,356.54,0.0
55962.0,STARLINK-5906,PAYLOAD,2023-05-24 00:08:18,15.69912843,0.0003578,69.9978,352.0121,283.0336,77.046,-1.9985e-05,-2.614e-05,0.0,0 STARLINK-5906,1 55962U 23037BA  23144.00577360 -.00002614  00000-0 -19985-4 0  9995,2 55962  69.9978 352.0121 0003578 283.0336  77.0460 15.69912843 11081,6737.283,91.725,361.559,356.738,0.0
55962.0,STARLINK-5906,PAYLOAD,2023-05-24 15:25:49,15.69916518,0.000414,69.9972,350.2214,279.0583,81.0144,4.5162e-06,3.3e-06,0.0,0 STARLINK-5906,1 55962U 23037BA  23144.64293165  .00000330  00000-0  45162-5 0  9991,2 55962  69.9972 350.2214 0004140 279.0583  81.0144 15.69916518 11181,6737.273,91.725,361.927,356.349,0.0
55962.0,STARLINK-5906,PAYLOAD,2023-05-25 14:22:04,15.69980139,0.000388,69.9961,347.5321,267.2548,92.8204,-0.00010888,-0.00013316,0.0,0 STARLINK-5906,1 55962U 23037BA  23145.59866205 -.00013316  00000-0 -10888-3 0  9992,2 55962  69.9961 347.5321 0003880 267.2548  92.8204 15.69980139 10992,6737.091,91.721,361.57,356.342,0.0
55962.0,STARLINK-5906,PAYLOAD,2023-05-25 15:53:51,15.69921634,0.0003561,69.9962,347.3533,264.8616,95.2173,-1.0438e-06,-3.38e-06,0.0,0 STARLINK-5906,1 55962U 23037BA  23145.66239709 -.00000338  00000-0 -10438-5 0  9996,2 55962  69.9962 347.3533 0003561 264.8616  95.2173 15.69921634 11348,6737.258,91.724,361.522,356.724,0.0
55962.0,STARLINK-5906,PAYLOAD,2023-05-25 22:00:51,15.69927789,0.0003757,69.9958,346.6368,274.1181,85.9585,6.3871e-06,5.55e-06,0.0,0 STARLINK-5906,1 55962U 23037BA  23145.91725780  .00000555  00000-0  63871-5 0  9991,2 55962  69.9958 346.6368 0003757 274.1181  85.9585 15.69927789 11046,6737.241,91.724,361.637,356.574,0.0
55962.0,STARLINK-5906,PAYLOAD,2023-05-26 13:18:23,15.69922093,0.000387,69.9968,344.8463,272.3809,87.6943,-9.0654e-06,-1.303e-05,0.0,0 STARLINK-5906,1 55962U 23037BA  23146.55443417 -.00001303  00000-0 -90654-5 0  9999,2 55962  69.9968 344.8463 0003870 272.3809  87.6943 15.69922093 11147,6737.257,91.724,361.729,356.515,0.0
55962.0,STARLINK-5906,PAYLOAD,2023-05-26 16:21:53,15.6992625,0.0003706,69.9976,344.4876,273.6294,86.4478,-3.894e-06,-6.81e-06,0.0,0 STARLINK-5906,1 55962U 23037BA  23146.68186436 -.00000681  00000-0 -38940-5 0  9996,2 55962  69.9976 344.4876 0003706 273.6294  86.4478 15.69926250 11509,6737.245,91.724,361.607,356.613,0.0
55962.0,STARLINK-5906,PAYLOAD,2023-05-26 20:57:07,15.69934267,0.0003486,69.998,343.9532,268.7964,91.2832,3.1094e-06,1.61e-06,0.0,0 STARLINK-5906,1 55962U 23037BA  23146.87300700  .00000161  00000-0  31094-5 0  9993,2 55962  69.9980 343.9532 0003486 268.7964  91.2832 15.69934267 11191,6737.222,91.724,361.436,356.738,0.0
55962.0,STARLINK-5906,PAYLOAD,2023-05-26 22:28:53,15.69932418,0.0003508,69.9974,343.7709,274.8129,85.2666,-1.2634e-06,-3.65e-06,0.0,0 STARLINK-5906,1 55962U 23037BA  23146.93672641 -.00000365  00000-0 -12634-5 0  9993,2 55962  69.9974 343.7709 0003508 274.8129  85.2666 15.69932418 11547,6737.227,91.724,361.456,356.729,0.0
55962.0,STARLINK-5906,PAYLOAD,2023-05-27 06:07:39,15.69916594,0.0003236,69.9971,342.876,276.9038,83.1789,2.2225e-06,5.4e-07,0.0,0 STARLINK-5906,1 55962U 23037BA  23147.25531963  .00000054  00000-0  22225-5 0  9990,2 55962  69.9971 342.8760 0003236 276.9038  83.1789 15.69916594 11596,6737.273,91.725,361.318,356.957,0.0
55962.0,STARLINK-5906,PAYLOAD,2023-05-27 21:25:10,15.69918755,0.0003502,69.9966,341.0843,275.2949,84.7847,-2.3379e-06,-4.94e-06,0.0,0 STARLINK-5906,1 55962U 23037BA  23147.89248747 -.00000494  00000-0 -23379-5 0  9996,2 55962  69.9966 341.0843 0003502 275.2949  84.7847 15.69918755 11359,6737.266,91.724,361.491,356.772,0.0
55962.0,STARLINK-5906,PAYLOAD,2023-05-27 22:56:55,15.69923755,0.0003432,69.9975,340.9077,264.5673,95.5131,1.7678e-06,0.0,0.0,0 STARLINK-5906,1 55962U 23037BA  23147.95619972 -.00000000  00000-0  17678-5 0  9992,2 55962  69.9975 340.9077 0003432 264.5673  95.5131 15.69923755 11704,6737.252,91.724,361.429,356.805,0.0
55962.0,STARLINK-5906,PAYLOAD,2023-05-28 15:46:11,15.69931372,0.0003666,69.9978,338.9372,266.9647,93.113,3.5892e-06,2.19e-06,0.0,0 STARLINK-5906,1 55962U 23037BA  23148.65707744  .00000219  00000-0  35892-5 0  9994,2 55962  69.9978 338.9372 0003666 266.9647  93.1130 15.69931372 11817,6737.23,91.724,361.565,356.625,0.0
55962.0,STARLINK-5906,PAYLOAD,2023-05-28 21:53:11,15.69931834,0.0003609,69.9976,338.2198,265.4889,94.5894,6.8645e-06,6.13e-06,0.0,0 STARLINK-5906,1 55962U 23037BA  23148.91194206  .00000613  00000-0  68645-5 0  9996,2 55962  69.9976 338.2198 0003609 265.4889  94.5894 15.69931834 11515,6737.229,91.724,361.525,356.663,0.0
55962.0,STARLINK-5906,PAYLOAD,2023-05-29 05:31:59,15.69905704,0.0003604,69.9972,337.3255,261.1919,98.8869,-5.0417e-06,-8.19e-06,0.0,0 STARLINK-5906,1 55962U 23037BA  23149.23054463 -.00000819  00000-0 -50417-5 0  9990,2 55962  69.9972 337.3255 0003604 261.1919  98.8869 15.69905704 11906,6737.304,91.725,361.597,356.741,0.0
55962.0,STARLINK-5906,PAYLOAD,2023-05-29 14:42:29,15.69916748,0.0003702,69.9965,336.2483,269.8762,90.2009,3.8474e-06,2.49e-06,0.0,0 STARLINK-5906,1 55962U 23037BA  23149.61283861  .00000249  00000-0  38474-5 0  9992,2 55962  69.9965 336.2483 0003702 269.8762  90.2009 15.69916748 11620,6737.272,91.725,361.631,356.643,0.0
55962.0,STARLINK-5906,PAYLOAD,2023-05-29 20:49:29,15.69921648,0.0003493,69.9964,335.5307,266.6261,93.4535,1.1835e-05,1.21e-05,0.0,0 STARLINK-5906,1 55962U 23037BA  23149.86770127  .00001210  00000-0  11835-4 0  9995,2 55962  69.9964 335.5307 0003493 266.6261  93.4535 15.69921648 11660,6737.258,91.724,361.476,356.77,0.0
55962.0,STARLINK-5906,PAYLOAD,2023-05-29 22:21:14,15.69923973,0.0003427,69.9967,335.3515,268.7327,91.3476,1.282e-05,1.329e-05,0.0,0 STARLINK-5906,1 55962U 23037BA  23149.93141703  .00001329  00000-0  12820-4 0  9991,2 55962  69.9967 335.3515 0003427 268.7327  91.3476 15.69923973 12019,6737.252,91.724,361.425,356.808,0.0
55962.0,STARLINK-5906,PAYLOAD,2023-05-30 05:59:59,15.69928965,0.0003571,69.9969,334.4561,266.6496,93.4291,2.5749e-06,9.7e-07,0.0,0 STARLINK-5906,1 55962U 23037BA  23150.24999852  .00000097  00000-0  25749-5 0  9999,2 55962  69.9969 334.4561 0003571 266.6496  93.4291 15.69928965 11727,6737.237,91.724,361.508,356.696,0.0
55962.0,STARLINK-5906,PAYLOAD,2023-05-30 21:17:31,15.69927364,0.0003563,69.9972,332.6645,268.2398,91.839,8.4738e-06,8.06e-06,0.0,0 STARLINK-5906,1 55962U 23037BA  23150.88716496  .00000806  00000-0  84738-5 0  9991,2 55962  69.9972 332.6645 0003563 268.2398  91.8390 15.69927364 11829,6737.242,91.724,361.507,356.706,0.0
